[
    {
        "Altitude(m)": 612502.208738333,
        "Argument of Periapsis(deg)": 0.0,
        "Eccentricity": 0.0,
        "Inclination(deg)": 60.0,
        "Latitude(deg)": -28.136018864542066,
        "Longitude(deg)": 167.14819445295532,
        "Mean Anomaly(deg)": -32.72730000000006,
        "RAAN(deg)": 285.0,
        "Satellite Name": "Test1 1274",
        "Satellite Number": 1274,
        "Semi-Major Axis(m)": 6980739.136638005,
        "Time(s)": 0
    },
    {
        "Altitude(m)": 612308.6566502762,
        "Argument of Periapsis(deg)": 0.00010418945913296404,
        "Eccentricity": 0.0,
        "Inclination(deg)": 60.0,
        "Latitude(deg)": -27.623074812620846,
        "Longitude(deg)": 167.5016699264343,
        "Mean Anomaly(deg)": -32.10719385453821,
        "RAAN(deg)": 284.9995799508602,
        "Satellite Name": "Test1 1274",
        "Satellite Number": 1274,
        "Semi-Major Axis(m)": 6980739.136638005,
        "Time(s)": 10
    }
]